{"type":"FeatureCollection","features":[{"type":"Feature","properties":{"name":"Hong Leong Bank","kind":"bank"},"geometry":{"type":"Point","coordinates":[101.7092576,3.1539979]}},{"type":"Feature","properties":{"name":"Starbucks","kind":"cafe"},"geometry":{"type":"Point","coordinates":[101.712256,3.1566188]}},{"type":"Feature","properties":{"name":"Toys R Us","kind":"toys"},"geometry":{"type":"Point","coordinates":[101.7122653,3.1568156]}},{"type":"Feature","properties":{"name":"Nando's","kind":"restaurant"},"geometry":{"type":"Point","coordinates":[101.7118211,3.1576778]}},{"type":"Feature","properties":{"name":"Exxon Mobil","kind":"place"},"geometry":{"type":"Point","coordinates":[101.7157615,3.1537964]}},{"type":"Feature","properties":{"name":"The Binjai","kind":"place"},"geometry":{"type":"Point","coordinates":[101.7173241,3.1542257]}},{"type":"Feature","properties":{"name":"Kampachi","kind":"restaurant"},"geometry":{"type":"Point","coordinates":[101.718108,3.1579912]}},{"type":"Feature","properties":{"name":"Grand Hyatt Hotel","kind":"place"},"geometry":{"type":"Point","coordinates":[101.7115919,3.1539561]}},{"type":"Feature","properties":{"name":"Cedar on 15","kind":"restaurant"},"geometry":{"type":"Point","coordinates":[101.7113874,3.1534656]}},{"type":"Feature","properties":{"name":"Madam Kwan's","kind":"restaurant"},"geometry":{"type":"Point","coordinates":[101.7119661,3.1567627]}},{"type":"Feature","properties":{"name":"Bavarian Bierhaus","kind":"restaurant"},"geometry":{"type":"Point","coordinates":[101.712095,3.1520282]}},{"type":"Feature","properties":{"name":"Melur & Thyme","kind":"restaurant"},"geometry":{"type":"Point","coordinates":[101.7131719,3.1577902]}},{"type":"Feature","properties":{"name":"The Apartment","kind":"restaurant"},"geometry":{"type":"Point","coordinates":[101.713137,3.1573162]}},{"type":"Feature","properties":{"name":"Senga Dining","kind":"restaurant"},"geometry":{"type":"Point","coordinates":[101.708545,3.1547017]}},{"type":"Feature","properties":{"name":"CU","kind":"convenience"},"geometry":{"type":"Point","coordinates":[101.7089216,3.1551145]}},{"type":"Feature","properties":{"name":"Hotlink","kind":"mobile_phone"},"geometry":{"type":"Point","coordinates":[101.7132088,3.1579971]}},{"type":"Feature","properties":{"name":"Starbucks's","kind":"cafe"},"geometry":{"type":"Point","coordinates":[101.7117951,3.1526506]}},{"type":"Feature","properties":{"name":"BBQ Nights","kind":"restaurant"},"geometry":{"type":"Point","coordinates":[101.7085978,3.1546105]}},{"type":"Feature","properties":{"name":"Beachfire Grill","kind":"restaurant"},"geometry":{"type":"Point","coordinates":[101.7093354,3.1554948]}},{"type":"Feature","properties":{"name":"Hop-on Hop-off Stop 18 - KL Citywalk","kind":"place"},"geometry":{"type":"Point","coordinates":[101.708405,3.1550519]}},{"type":"Feature","properties":{"name":"Hop-on Hop-off Stop 10 - Aquaria - KLCC Park","kind":"place"},"geometry":{"type":"Point","coordinates":[101.7121411,3.1553573]}},{"type":"Feature","properties":{"name":"O\u2019 Coffee Club","kind":"cafe"},"geometry":{"type":"Point","coordinates":[101.7092066,3.1552613]}},{"type":"Feature","properties":{"name":"Samad Al Iraqi","kind":"restaurant"},"geometry":{"type":"Point","coordinates":[101.7094818,3.1556503]}},{"type":"Feature","properties":{"name":"Isetan Suria","kind":"department_store"},"geometry":{"type":"Point","coordinates":[101.7129992,3.1575337]}},{"type":"Feature","properties":{"name":"San Francisco Coffee","kind":"cafe"},"geometry":{"type":"Point","coordinates":[101.708695,3.1548726]}},{"type":"Feature","properties":{"name":"Kenny Rogers Roasters","kind":"restaurant"},"geometry":{"type":"Point","coordinates":[101.7128968,3.1538565]}},{"type":"Feature","properties":{"name":"Wisma Rohas Perkasa","kind":"place"},"geometry":{"type":"Point","coordinates":[101.708363,3.155004]}},{"type":"Feature","properties":{"name":"Bacha Coffee","kind":"cafe"},"geometry":{"type":"Point","coordinates":[101.7129039,3.1573634]}},{"type":"Feature","properties":{"name":"Louis Vuitton","kind":"clothes"},"geometry":{"type":"Point","coordinates":[101.711235,3.1572913]}},{"type":"Feature","properties":{"name":"Dotty\u2019s","kind":"bakery"},"geometry":{"type":"Point","coordinates":[101.7131933,3.1576246]}},{"type":"Feature","properties":{"name":"Sushi Oribe","kind":"restaurant"},"geometry":{"type":"Point","coordinates":[101.7130911,3.1520806]}},{"type":"Feature","properties":{"name":"Starbucks","kind":"cafe"},"geometry":{"type":"Point","coordinates":[101.7096558,3.1565733]}},{"type":"Feature","properties":{"name":"Piring","kind":"cafe"},"geometry":{"type":"Point","coordinates":[101.7095186,3.1567884]}},{"type":"Feature","properties":{"name":"Marini's on 57 - Restaurant","kind":"restaurant"},"geometry":{"type":"Point","coordinates":[101.7114703,3.1564119]}},{"type":"Feature","properties":{"name":"Grand Hyatt Hotel","kind":"place"},"geometry":{"type":"Point","coordinates":[101.711675,3.1540095]}},{"type":"Feature","properties":{"name":"Sephora","kind":"cosmetics"},"geometry":{"type":"Point","coordinates":[101.7121401,3.1569435]}},{"type":"Feature","properties":{"name":"Cold Storage KLCC","kind":"supermarket"},"geometry":{"type":"Point","coordinates":[101.7121307,3.1567898]}},{"type":"Feature","properties":{"name":"Life Centre","kind":"place"},"geometry":{"type":"Point","coordinates":[101.7083813,3.1535069]}},{"type":"Feature","properties":{"name":"Svago","kind":"restaurant"},"geometry":{"type":"Point","coordinates":[101.7122399,3.1565064]}},{"type":"Feature","properties":{"name":"Dome","kind":"restaurant"},"geometry":{"type":"Point","coordinates":[101.7122161,3.1567111]}},{"type":"Feature","properties":{"name":"Uniqlo","kind":"clothes"},"geometry":{"type":"Point","coordinates":[101.7128405,3.157766]}},{"type":"Feature","properties":{"name":"Kinokuniya","kind":"books"},"geometry":{"type":"Point","coordinates":[101.7126067,3.1576746]}},{"type":"Feature","properties":{"name":"Skoozi","kind":"restaurant"},"geometry":{"type":"Point","coordinates":[101.7095539,3.1547756]}},{"type":"Feature","properties":{"name":"Gravy Baby","kind":"restaurant"},"geometry":{"type":"Point","coordinates":[101.7081725,3.1548803]}},{"type":"Feature","properties":{"name":"Bentley","kind":"car"},"geometry":{"type":"Point","coordinates":[101.7111811,3.1541145]}},{"type":"Feature","properties":{"name":"Persiaran KLCC","kind":"place"},"geometry":{"type":"Point","coordinates":[101.7182203,3.1568044]}},{"type":"Feature","properties":{"name":"Nobu","kind":"restaurant"},"geometry":{"type":"Point","coordinates":[101.7112694,3.156574]}},{"type":"Feature","properties":{"name":"Etoile Cafe","kind":"cafe"},"geometry":{"type":"Point","coordinates":[101.7096173,3.1532547]}},{"type":"Feature","properties":{"name":"Machines Suria, Apple Premium Reseller","kind":"mobile_phone"},"geometry":{"type":"Point","coordinates":[101.7116234,3.1576733]}},{"type":"Feature","properties":{"name":"Health Line Family Pharmacy","kind":"pharmacy"},"geometry":{"type":"Point","coordinates":[101.7117424,3.1575617]}},{"type":"Feature","properties":{"name":"Persiaran KLCC","kind":"place"},"geometry":{"type":"Point","coordinates":[101.7182239,3.1568033]}},{"type":"Feature","properties":{"name":"Life Centre","kind":"place"},"geometry":{"type":"Point","coordinates":[101.7083293,3.1534189]}},{"type":"Feature","properties":{"name":"Zara","kind":"clothes"},"geometry":{"type":"Point","coordinates":[101.7131662,3.1577542]}},{"type":"Feature","properties":{"name":"KLCC","kind":"place"},"geometry":{"type":"Point","coordinates":[101.7107955,3.1570448]}},{"type":"Feature","properties":{"name":"The Binjai","kind":"place"},"geometry":{"type":"Point","coordinates":[101.7173365,3.1541673]}},{"type":"Feature","properties":{"name":"Exxon Mobil","kind":"place"},"geometry":{"type":"Point","coordinates":[101.7157663,3.1537325]}},{"type":"Feature","properties":{"name":"Fook","kind":"restaurant"},"geometry":{"type":"Point","coordinates":[101.7083336,3.1528573]}},{"type":"Feature","properties":{"name":"Blitz X Colony","kind":"cafe"},"geometry":{"type":"Point","coordinates":[101.7130752,3.1520383]}},{"type":"Feature","properties":{"name":"myNEWS.com","kind":"convenience"},"geometry":{"type":"Point","coordinates":[101.7081138,3.1548132]}},{"type":"Feature","properties":{"name":"Muji","kind":"department_store"},"geometry":{"type":"Point","coordinates":[101.7129784,3.1579303]}},{"type":"Feature","properties":{"name":"Skechers","kind":"shoes"},"geometry":{"type":"Point","coordinates":[101.7123009,3.1575186]}},{"type":"Feature","properties":{"name":"ASICS","kind":"shoes"},"geometry":{"type":"Point","coordinates":[101.7122801,3.1574928]}},{"type":"Feature","properties":{"name":"Gucci","kind":"clothes"},"geometry":{"type":"Point","coordinates":[101.7119356,3.1578874]}},{"type":"Feature","properties":{"name":"7-Eleven","kind":"convenience"},"geometry":{"type":"Point","coordinates":[101.7112271,3.1571949]}},{"type":"Feature","properties":{"name":"Hop-on Hop-off Stop 19 - Aquaria","kind":"place"},"geometry":{"type":"Point","coordinates":[101.7121372,3.1553385]}},{"type":"Feature","properties":{"name":"Wisma Rohas Perkasa","kind":"place"},"geometry":{"type":"Point","coordinates":[101.7084513,3.1549233]}},{"type":"Feature","properties":{"name":"Hop-on Hop-off Stop 18 - KL Citywalk","kind":"place"},"geometry":{"type":"Point","coordinates":[101.708492,3.1549692]}},{"type":"Feature","properties":{"name":"Poolside Bistro","kind":"cafe"},"geometry":{"type":"Point","coordinates":[101.716237,3.1526559]}},{"type":"Feature","properties":{"name":"Poolside Bistro","kind":"restaurant"},"geometry":{"type":"Point","coordinates":[101.7161448,3.1525253]}},{"type":"Feature","properties":{"name":"Roselle Coffee House","kind":"restaurant"},"geometry":{"type":"Point","coordinates":[101.7161873,3.1524145]}},{"type":"Feature","properties":{"name":"UMI","kind":"restaurant"},"geometry":{"type":"Point","coordinates":[101.7161288,3.1523526]}},{"type":"Feature","properties":{"name":"CIMB Bank","kind":"bank"},"geometry":{"type":"Point","coordinates":[101.7102846,3.1522451]}},{"type":"Feature","properties":{"name":"Proton","kind":"car"},"geometry":{"type":"Point","coordinates":[101.7091766,3.153247]}},{"type":"Feature","properties":{"name":"Cafe 88","kind":"cafe"},"geometry":{"type":"Point","coordinates":[101.7130645,3.1542053]}},{"type":"Feature","properties":{"name":"7-Eleven","kind":"convenience"},"geometry":{"type":"Point","coordinates":[101.7132946,3.1529624]}},{"type":"Feature","properties":{"name":"FamilyMart","kind":"convenience"},"geometry":{"type":"Point","coordinates":[101.7119819,3.1521668]}},{"type":"Feature","properties":{"name":"IL Forno","kind":"restaurant"},"geometry":{"type":"Point","coordinates":[101.7082731,3.1530504]}},{"type":"Feature","properties":{"name":"Tanburi","kind":"restaurant"},"geometry":{"type":"Point","coordinates":[101.7082226,3.1530325]}},{"type":"Feature","properties":{"name":"Health Lane","kind":"pharmacy"},"geometry":{"type":"Point","coordinates":[101.7114389,3.1571977]}},{"type":"Feature","properties":{"name":"Mesa On 51","kind":"restaurant"},"geometry":{"type":"Point","coordinates":[101.7134852,3.1529532]}},{"type":"Feature","properties":{"name":"Aston Martin","kind":"car"},"geometry":{"type":"Point","coordinates":[101.7107754,3.1543475]}},{"type":"Feature","properties":{"name":"Tonka Bean Caf\u00e9 & Deli","kind":"restaurant"},"geometry":{"type":"Point","coordinates":[101.7114749,3.153788]}},{"type":"Feature","properties":{"name":"Salad Atelier","kind":"restaurant"},"geometry":{"type":"Point","coordinates":[101.7137704,3.1533135]}},{"type":"Feature","properties":{"name":"Pokok KLCC Lot 91","kind":"restaurant"},"geometry":{"type":"Point","coordinates":[101.7140216,3.1530768]}},{"type":"Feature","properties":{"name":"Thirty8","kind":"restaurant"},"geometry":{"type":"Point","coordinates":[101.7122675,3.1536517]}},{"type":"Feature","properties":{"name":"JP teres","kind":"restaurant"},"geometry":{"type":"Point","coordinates":[101.712341,3.1534939]}},{"type":"Feature","properties":{"name":"Pool House","kind":"restaurant"},"geometry":{"type":"Point","coordinates":[101.711984,3.1541145]}},{"type":"Feature","properties":{"name":"KLCC Convention Center","kind":"landmark"},"geometry":{"type":"Point","coordinates":[101.7130851724138,3.154225531034483]}},{"type":"Feature","properties":{"name":"Petronas Towers","kind":"landmark"},"geometry":{"type":"Point","coordinates":[101.71175779736843,3.1579582978947367]}}]}